<?xml version="1.0" encoding="UTF-8"?>
<gpx version="1.1" creator="Trivlock" xmlns="http://www.topografix.com/GPX/1/1">
  <metadata>
    <name>Bate volta Cachoeira Ze Carlinhos</name>
    <desc>Visita a uma das cachoeiras mais bonitas da região, que é a Cachoeira Ze Carlinhos. Passagem pelo belíssimo Vale da Gurita, com travessia de riachos.</desc>
  </metadata>
  <trk>
    <name>Bate volta Cachoeira Ze Carlinhos</name>
    <trkseg>
      <trkpt lat="-20.265707" lon="-46.768935"/>
      <trkpt lat="-20.265867" lon="-46.768999"/>
      <trkpt lat="-20.26576" lon="-46.769061"/>
      <trkpt lat="-20.265896" lon="-46.769326"/>
      <trkpt lat="-20.266732" lon="-46.769217"/>
      <trkpt lat="-20.267288" lon="-46.769313"/>
      <trkpt lat="-20.267844" lon="-46.769975"/>
      <trkpt lat="-20.268991" lon="-46.770495"/>
      <trkpt lat="-20.269726" lon="-46.770476"/>
      <trkpt lat="-20.270162" lon="-46.770845"/>
      <trkpt lat="-20.271831" lon="-46.770471"/>
      <trkpt lat="-20.272644" lon="-46.770964"/>
      <trkpt lat="-20.272962" lon="-46.771863"/>
      <trkpt lat="-20.273135" lon="-46.771957"/>
      <trkpt lat="-20.273481" lon="-46.771331"/>
      <trkpt lat="-20.273455" lon="-46.769637"/>
      <trkpt lat="-20.274112" lon="-46.768576"/>
      <trkpt lat="-20.275058" lon="-46.767495"/>
      <trkpt lat="-20.275451" lon="-46.767211"/>
      <trkpt lat="-20.276334" lon="-46.767155"/>
      <trkpt lat="-20.276646" lon="-46.767396"/>
      <trkpt lat="-20.276915" lon="-46.76741"/>
      <trkpt lat="-20.277737" lon="-46.767173"/>
      <trkpt lat="-20.279067" lon="-46.766193"/>
      <trkpt lat="-20.279324" lon="-46.765657"/>
      <trkpt lat="-20.280022" lon="-46.765202"/>
      <trkpt lat="-20.280751" lon="-46.766278"/>
      <trkpt lat="-20.281888" lon="-46.767196"/>
      <trkpt lat="-20.283007" lon="-46.767812"/>
      <trkpt lat="-20.283674" lon="-46.767913"/>
      <trkpt lat="-20.284207" lon="-46.768184"/>
      <trkpt lat="-20.284845" lon="-46.769011"/>
      <trkpt lat="-20.286586" lon="-46.769838"/>
      <trkpt lat="-20.28692" lon="-46.770569"/>
      <trkpt lat="-20.288187" lon="-46.771659"/>
      <trkpt lat="-20.28843" lon="-46.773138"/>
      <trkpt lat="-20.287892" lon="-46.774936"/>
      <trkpt lat="-20.288325" lon="-46.775672"/>
      <trkpt lat="-20.289126" lon="-46.775751"/>
      <trkpt lat="-20.289659" lon="-46.775963"/>
      <trkpt lat="-20.289757" lon="-46.776562"/>
      <trkpt lat="-20.286416" lon="-46.780857"/>
      <trkpt lat="-20.28505" lon="-46.782945"/>
      <trkpt lat="-20.284524" lon="-46.784065"/>
      <trkpt lat="-20.28403" lon="-46.784579"/>
      <trkpt lat="-20.283332" lon="-46.784608"/>
      <trkpt lat="-20.282671" lon="-46.784269"/>
      <trkpt lat="-20.282038" lon="-46.78425"/>
      <trkpt lat="-20.281089" lon="-46.785011"/>
      <trkpt lat="-20.280819" lon="-46.785497"/>
      <trkpt lat="-20.279827" lon="-46.785857"/>
      <trkpt lat="-20.279238" lon="-46.785505"/>
      <trkpt lat="-20.276802" lon="-46.785247"/>
      <trkpt lat="-20.276462" lon="-46.785626"/>
      <trkpt lat="-20.275909" lon="-46.785728"/>
      <trkpt lat="-20.275375" lon="-46.786697"/>
      <trkpt lat="-20.274523" lon="-46.786931"/>
      <trkpt lat="-20.273297" lon="-46.787878"/>
      <trkpt lat="-20.271536" lon="-46.788919"/>
      <trkpt lat="-20.270231" lon="-46.79046"/>
      <trkpt lat="-20.269849" lon="-46.791167"/>
      <trkpt lat="-20.269815" lon="-46.791864"/>
      <trkpt lat="-20.268197" lon="-46.797085"/>
      <trkpt lat="-20.267512" lon="-46.798842"/>
      <trkpt lat="-20.267111" lon="-46.800744"/>
      <trkpt lat="-20.266677" lon="-46.801089"/>
      <trkpt lat="-20.265442" lon="-46.801197"/>
      <trkpt lat="-20.265157" lon="-46.801962"/>
      <trkpt lat="-20.264915" lon="-46.802829"/>
      <trkpt lat="-20.26468" lon="-46.806438"/>
      <trkpt lat="-20.263812" lon="-46.811038"/>
      <trkpt lat="-20.26378" lon="-46.81203"/>
      <trkpt lat="-20.263169" lon="-46.814072"/>
      <trkpt lat="-20.263019" lon="-46.815107"/>
      <trkpt lat="-20.262039" lon="-46.817503"/>
      <trkpt lat="-20.260754" lon="-46.818292"/>
      <trkpt lat="-20.259253" lon="-46.818447"/>
      <trkpt lat="-20.258774" lon="-46.818859"/>
      <trkpt lat="-20.25786" lon="-46.820274"/>
      <trkpt lat="-20.25657" lon="-46.821216"/>
      <trkpt lat="-20.255328" lon="-46.821841"/>
      <trkpt lat="-20.254987" lon="-46.822247"/>
      <trkpt lat="-20.251448" lon="-46.829772"/>
      <trkpt lat="-20.250649" lon="-46.83072"/>
      <trkpt lat="-20.249622" lon="-46.832667"/>
      <trkpt lat="-20.249848" lon="-46.833235"/>
      <trkpt lat="-20.251325" lon="-46.83409"/>
      <trkpt lat="-20.252008" lon="-46.834905"/>
      <trkpt lat="-20.252717" lon="-46.835474"/>
      <trkpt lat="-20.255029" lon="-46.835424"/>
      <trkpt lat="-20.255889" lon="-46.835662"/>
      <trkpt lat="-20.256236" lon="-46.836406"/>
      <trkpt lat="-20.256223" lon="-46.837058"/>
      <trkpt lat="-20.255236" lon="-46.838346"/>
      <trkpt lat="-20.254217" lon="-46.840083"/>
      <trkpt lat="-20.254688" lon="-46.840428"/>
      <trkpt lat="-20.25533" lon="-46.84043"/>
      <trkpt lat="-20.255629" lon="-46.841233"/>
      <trkpt lat="-20.255545" lon="-46.842072"/>
      <trkpt lat="-20.254984" lon="-46.842741"/>
      <trkpt lat="-20.254869" lon="-46.843325"/>
      <trkpt lat="-20.255739" lon="-46.843426"/>
      <trkpt lat="-20.256101" lon="-46.843731"/>
      <trkpt lat="-20.255351" lon="-46.845754"/>
      <trkpt lat="-20.254809" lon="-46.845865"/>
      <trkpt lat="-20.254252" lon="-46.845613"/>
      <trkpt lat="-20.253781" lon="-46.845743"/>
      <trkpt lat="-20.252961" lon="-46.846861"/>
      <trkpt lat="-20.251483" lon="-46.850154"/>
      <trkpt lat="-20.251656" lon="-46.851758"/>
      <trkpt lat="-20.251961" lon="-46.852631"/>
      <trkpt lat="-20.252879" lon="-46.854076"/>
      <trkpt lat="-20.253487" lon="-46.854448"/>
      <trkpt lat="-20.253434" lon="-46.856226"/>
      <trkpt lat="-20.254003" lon="-46.857953"/>
      <trkpt lat="-20.254318" lon="-46.859789"/>
      <trkpt lat="-20.25482" lon="-46.860522"/>
      <trkpt lat="-20.255512" lon="-46.861099"/>
      <trkpt lat="-20.256284" lon="-46.861504"/>
      <trkpt lat="-20.256777" lon="-46.862175"/>
      <trkpt lat="-20.256845" lon="-46.862745"/>
      <trkpt lat="-20.257403" lon="-46.863858"/>
      <trkpt lat="-20.258587" lon="-46.864336"/>
      <trkpt lat="-20.258964" lon="-46.865084"/>
      <trkpt lat="-20.261649" lon="-46.865486"/>
      <trkpt lat="-20.262303" lon="-46.86545"/>
      <trkpt lat="-20.263397" lon="-46.864697"/>
      <trkpt lat="-20.265097" lon="-46.864403"/>
      <trkpt lat="-20.265668" lon="-46.864479"/>
      <trkpt lat="-20.266327" lon="-46.864797"/>
      <trkpt lat="-20.266712" lon="-46.865571"/>
      <trkpt lat="-20.266815" lon="-46.866704"/>
      <trkpt lat="-20.267595" lon="-46.867145"/>
      <trkpt lat="-20.268712" lon="-46.867075"/>
      <trkpt lat="-20.270471" lon="-46.867325"/>
      <trkpt lat="-20.271102" lon="-46.867075"/>
      <trkpt lat="-20.272075" lon="-46.867673"/>
      <trkpt lat="-20.275349" lon="-46.868607"/>
      <trkpt lat="-20.276228" lon="-46.869152"/>
      <trkpt lat="-20.276916" lon="-46.869791"/>
      <trkpt lat="-20.277154" lon="-46.870489"/>
      <trkpt lat="-20.277566" lon="-46.871109"/>
      <trkpt lat="-20.277892" lon="-46.870652"/>
      <trkpt lat="-20.278019" lon="-46.869996"/>
      <trkpt lat="-20.279105" lon="-46.871264"/>
      <trkpt lat="-20.279453" lon="-46.871491"/>
      <trkpt lat="-20.28019" lon="-46.871659"/>
      <trkpt lat="-20.280836" lon="-46.871425"/>
      <trkpt lat="-20.281447" lon="-46.871397"/>
      <trkpt lat="-20.281852" lon="-46.871037"/>
      <trkpt lat="-20.282178" lon="-46.870456"/>
      <trkpt lat="-20.28266" lon="-46.87012"/>
      <trkpt lat="-20.283407" lon="-46.868872"/>
      <trkpt lat="-20.284017" lon="-46.868209"/>
      <trkpt lat="-20.284598" lon="-46.868235"/>
      <trkpt lat="-20.285575" lon="-46.86938"/>
      <trkpt lat="-20.287371" lon="-46.869595"/>
      <trkpt lat="-20.289192" lon="-46.870059"/>
      <trkpt lat="-20.289267" lon="-46.870428"/>
      <trkpt lat="-20.289073" lon="-46.87078"/>
      <trkpt lat="-20.288728" lon="-46.871295"/>
      <trkpt lat="-20.28825" lon="-46.871667"/>
      <trkpt lat="-20.288329" lon="-46.872123"/>
      <trkpt lat="-20.289268" lon="-46.872415"/>
      <trkpt lat="-20.289505" lon="-46.872768"/>
      <trkpt lat="-20.289252" lon="-46.872958"/>
      <trkpt lat="-20.289131" lon="-46.873688"/>
      <trkpt lat="-20.288358" lon="-46.874261"/>
      <trkpt lat="-20.288594" lon="-46.87463"/>
      <trkpt lat="-20.289179" lon="-46.874848"/>
      <trkpt lat="-20.289676" lon="-46.874775"/>
      <trkpt lat="-20.289978" lon="-46.875108"/>
      <trkpt lat="-20.292506" lon="-46.875918"/>
      <trkpt lat="-20.293894" lon="-46.875529"/>
      <trkpt lat="-20.294395" lon="-46.875031"/>
      <trkpt lat="-20.294925" lon="-46.87391"/>
      <trkpt lat="-20.295223" lon="-46.873578"/>
      <trkpt lat="-20.29792" lon="-46.871306"/>
      <trkpt lat="-20.299887" lon="-46.872009"/>
      <trkpt lat="-20.300968" lon="-46.871689"/>
      <trkpt lat="-20.305973" lon="-46.869341"/>
      <trkpt lat="-20.306662" lon="-46.868648"/>
      <trkpt lat="-20.305283" lon="-46.86554"/>
      <trkpt lat="-20.305213" lon="-46.864225"/>
      <trkpt lat="-20.306118" lon="-46.861554"/>
      <trkpt lat="-20.30666" lon="-46.860444"/>
      <trkpt lat="-20.332222" lon="-46.844851"/>
      <trkpt lat="-20.335374" lon="-46.842821"/>
      <trkpt lat="-20.336221" lon="-46.842209"/>
      <trkpt lat="-20.337471" lon="-46.840949"/>
      <trkpt lat="-20.338229" lon="-46.840583"/>
      <trkpt lat="-20.338157" lon="-46.839434"/>
      <trkpt lat="-20.339119" lon="-46.836376"/>
      <trkpt lat="-20.340707" lon="-46.832987"/>
      <trkpt lat="-20.340639" lon="-46.831973"/>
      <trkpt lat="-20.338404" lon="-46.8247"/>
      <trkpt lat="-20.338284" lon="-46.823771"/>
      <trkpt lat="-20.340151" lon="-46.81595"/>
      <trkpt lat="-20.340691" lon="-46.815032"/>
      <trkpt lat="-20.341418" lon="-46.81302"/>
      <trkpt lat="-20.342832" lon="-46.811049"/>
      <trkpt lat="-20.347635" lon="-46.807268"/>
      <trkpt lat="-20.348555" lon="-46.806799"/>
      <trkpt lat="-20.349758" lon="-46.806743"/>
      <trkpt lat="-20.352258" lon="-46.80757"/>
      <trkpt lat="-20.356213" lon="-46.80798"/>
      <trkpt lat="-20.359515" lon="-46.807055"/>
      <trkpt lat="-20.360702" lon="-46.806995"/>
      <trkpt lat="-20.361569" lon="-46.806613"/>
      <trkpt lat="-20.362212" lon="-46.804536"/>
      <trkpt lat="-20.362145" lon="-46.80222"/>
      <trkpt lat="-20.363922" lon="-46.794918"/>
      <trkpt lat="-20.364345" lon="-46.793892"/>
      <trkpt lat="-20.367537" lon="-46.789291"/>
      <trkpt lat="-20.368799" lon="-46.78902"/>
      <trkpt lat="-20.370135" lon="-46.78909"/>
      <trkpt lat="-20.372559" lon="-46.790314"/>
      <trkpt lat="-20.377227" lon="-46.791858"/>
      <trkpt lat="-20.379902" lon="-46.79299"/>
      <trkpt lat="-20.381221" lon="-46.792818"/>
      <trkpt lat="-20.385541" lon="-46.792076"/>
      <trkpt lat="-20.38694" lon="-46.791672"/>
      <trkpt lat="-20.388119" lon="-46.790996"/>
      <trkpt lat="-20.389361" lon="-46.790012"/>
      <trkpt lat="-20.393687" lon="-46.787316"/>
      <trkpt lat="-20.394705" lon="-46.78653"/>
      <trkpt lat="-20.396273" lon="-46.783795"/>
      <trkpt lat="-20.396984" lon="-46.783038"/>
      <trkpt lat="-20.397762" lon="-46.782528"/>
      <trkpt lat="-20.398679" lon="-46.782169"/>
      <trkpt lat="-20.400343" lon="-46.783683"/>
      <trkpt lat="-20.400764" lon="-46.783866"/>
      <trkpt lat="-20.404976" lon="-46.784331"/>
      <trkpt lat="-20.405902" lon="-46.78388"/>
      <trkpt lat="-20.406934" lon="-46.783031"/>
      <trkpt lat="-20.40975" lon="-46.782797"/>
      <trkpt lat="-20.413715" lon="-46.782142"/>
      <trkpt lat="-20.41462" lon="-46.781737"/>
      <trkpt lat="-20.414908" lon="-46.780564"/>
      <trkpt lat="-20.415088" lon="-46.778505"/>
      <trkpt lat="-20.414654" lon="-46.774275"/>
      <trkpt lat="-20.414085" lon="-46.772241"/>
      <trkpt lat="-20.412579" lon="-46.768366"/>
      <trkpt lat="-20.41227" lon="-46.767213"/>
      <trkpt lat="-20.412137" lon="-46.762954"/>
      <trkpt lat="-20.412491" lon="-46.760255"/>
      <trkpt lat="-20.412784" lon="-46.759224"/>
      <trkpt lat="-20.414084" lon="-46.756041"/>
      <trkpt lat="-20.415928" lon="-46.753165"/>
      <trkpt lat="-20.416512" lon="-46.751861"/>
      <trkpt lat="-20.416751" lon="-46.750682"/>
      <trkpt lat="-20.416815" lon="-46.749309"/>
      <trkpt lat="-20.417414" lon="-46.748323"/>
      <trkpt lat="-20.418696" lon="-46.747584"/>
      <trkpt lat="-20.42019" lon="-46.746899"/>
      <trkpt lat="-20.421496" lon="-46.746926"/>
      <trkpt lat="-20.42273" lon="-46.746536"/>
      <trkpt lat="-20.426666" lon="-46.744622"/>
      <trkpt lat="-20.427351" lon="-46.743364"/>
      <trkpt lat="-20.429482" lon="-46.736832"/>
      <trkpt lat="-20.430119" lon="-46.735842"/>
      <trkpt lat="-20.434052" lon="-46.73167"/>
      <trkpt lat="-20.434455" lon="-46.73135"/>
      <trkpt lat="-20.434913" lon="-46.731256"/>
      <trkpt lat="-20.436128" lon="-46.730333"/>
      <trkpt lat="-20.437567" lon="-46.72956"/>
      <trkpt lat="-20.439122" lon="-46.729069"/>
      <trkpt lat="-20.440338" lon="-46.72809"/>
      <trkpt lat="-20.442071" lon="-46.728059"/>
      <trkpt lat="-20.44316" lon="-46.728241"/>
      <trkpt lat="-20.444319" lon="-46.728599"/>
      <trkpt lat="-20.446525" lon="-46.72959"/>
      <trkpt lat="-20.447301" lon="-46.730157"/>
      <trkpt lat="-20.449077" lon="-46.732217"/>
      <trkpt lat="-20.45007" lon="-46.732739"/>
      <trkpt lat="-20.453143" lon="-46.730075"/>
      <trkpt lat="-20.456171" lon="-46.726792"/>
      <trkpt lat="-20.457137" lon="-46.726105"/>
      <trkpt lat="-20.45786" lon="-46.725022"/>
      <trkpt lat="-20.45915" lon="-46.718825"/>
      <trkpt lat="-20.45915" lon="-46.715663"/>
      <trkpt lat="-20.460348" lon="-46.698491"/>
      <trkpt lat="-20.460097" lon="-46.696251"/>
      <trkpt lat="-20.458866" lon="-46.690568"/>
      <trkpt lat="-20.458646" lon="-46.688021"/>
      <trkpt lat="-20.457942" lon="-46.685979"/>
      <trkpt lat="-20.457884" lon="-46.684504"/>
      <trkpt lat="-20.457386" lon="-46.681563"/>
      <trkpt lat="-20.457556" lon="-46.68039"/>
      <trkpt lat="-20.458065" lon="-46.67924"/>
      <trkpt lat="-20.46129" lon="-46.675003"/>
      <trkpt lat="-20.461635" lon="-46.673581"/>
      <trkpt lat="-20.462106" lon="-46.672372"/>
      <trkpt lat="-20.464101" lon="-46.670283"/>
      <trkpt lat="-20.46639" lon="-46.666742"/>
      <trkpt lat="-20.467391" lon="-46.666209"/>
      <trkpt lat="-20.470132" lon="-46.664902"/>
      <trkpt lat="-20.471385" lon="-46.664726"/>
      <trkpt lat="-20.477956" lon="-46.668225"/>
      <trkpt lat="-20.480299" lon="-46.66871"/>
      <trkpt lat="-20.481396" lon="-46.66909"/>
      <trkpt lat="-20.482225" lon="-46.668807"/>
      <trkpt lat="-20.483164" lon="-46.667979"/>
      <trkpt lat="-20.484109" lon="-46.666652"/>
      <trkpt lat="-20.486519" lon="-46.661865"/>
      <trkpt lat="-20.487653" lon="-46.656497"/>
      <trkpt lat="-20.483638" lon="-46.653294"/>
      <trkpt lat="-20.483859" lon="-46.652651"/>
      <trkpt lat="-20.483768" lon="-46.652595"/>
    </trkseg>
  </trk>
</gpx>