<?xml version="1.0" encoding="UTF-8"?>
<gpx version="1.1" creator="Trivlock" xmlns="http://www.topografix.com/GPX/1/1">
  <metadata>
    <name>Pico do gavião - Luminárias - MG</name>
    <desc>Você sabia que muitas pessoas confundem o Pico do Gavião com a Pedra do Gavião? O Pico do Gavião é um ponto culminante com aproximadamente 1500 m de altitude, oferece uma visão panorâmica 360° de toda região. Do alto é possível observar nossa cidade vizinha São Tomé das Letras, a Serra do Papagaio em Aiuruoca, as serras de Carrancas e as nossas Serras de Luminárias. A região do pico é ampla e cheia de formações rochosas muito bonitas, vale a pena observar e, claro, buscar a pedra do gavião. Trilha relativamente simples, se conseguir chega de carro até perto. Tudo isso sem contar as formações rochosas que mexem com a imaginação, e uma delas é a “𝗣𝗲𝗱𝗿𝗮 𝗱𝗼 𝗚𝗮𝘃𝗶ã𝗼” que fica uns 700 metros da divisa com São Thomé das Letras quando se está chegando de carro pelo lado do Sobradinho próximo à uma cerca de arame liso. Geograficamente está situado no município de Luminárias MG, e pode ser acessado a partir de Sobradinho de Minas. É propriedade do Exército Brasileiro que tem unidade (EB) em um dos flancos da serra voltado para Luminárias o Campo de Instrução Especial da ESA (Escola de Sargentos e Armas), sediada no município vizinho de Três Corações. A ESA permite o acesso público a Pedra e Pico do Gavião só é permitido de 08h às 16hs e com a presença de um guia ou condutor de Turismo devidamente cadastrados junto à Coordenadoria de Turismo com 05 dias de antecedência via WhatsApp 35 3226 1502 . Experiência única em uma paisagem de tirar o fôlego. Descubra, conheça, visite Luminárias/MG, vale à pena ir a este monumento natural, uma beleza que surpreende aos olhos, ao observar pedras tortas de diferentes formas…”</desc>
  </metadata>
  <trk>
    <name>Pico do gavião - Luminárias - MG</name>
    <trkseg>
      <trkpt lat="-21.648419" lon="-44.898729"/>
      <trkpt lat="-21.648783" lon="-44.899071"/>
      <trkpt lat="-21.648476" lon="-44.899675"/>
      <trkpt lat="-21.648359" lon="-44.899975"/>
      <trkpt lat="-21.648274" lon="-44.900257"/>
      <trkpt lat="-21.648204" lon="-44.900447"/>
      <trkpt lat="-21.648097" lon="-44.900662"/>
      <trkpt lat="-21.648027" lon="-44.900828"/>
      <trkpt lat="-21.647972" lon="-44.901075"/>
      <trkpt lat="-21.647875" lon="-44.901863"/>
      <trkpt lat="-21.647868" lon="-44.902427"/>
      <trkpt lat="-21.647855" lon="-44.902543"/>
      <trkpt lat="-21.647749" lon="-44.903092"/>
      <trkpt lat="-21.647751" lon="-44.903166"/>
      <trkpt lat="-21.647765" lon="-44.903227"/>
      <trkpt lat="-21.647868" lon="-44.903419"/>
      <trkpt lat="-21.648062" lon="-44.903676"/>
      <trkpt lat="-21.648197" lon="-44.903878"/>
      <trkpt lat="-21.648279" lon="-44.903969"/>
      <trkpt lat="-21.648434" lon="-44.90409"/>
      <trkpt lat="-21.648658" lon="-44.904208"/>
      <trkpt lat="-21.648661" lon="-44.904307"/>
      <trkpt lat="-21.648646" lon="-44.904444"/>
      <trkpt lat="-21.64861" lon="-44.904508"/>
      <trkpt lat="-21.648415" lon="-44.904788"/>
      <trkpt lat="-21.64838" lon="-44.904861"/>
      <trkpt lat="-21.648344" lon="-44.905011"/>
      <trkpt lat="-21.64831" lon="-44.905103"/>
      <trkpt lat="-21.648235" lon="-44.905256"/>
      <trkpt lat="-21.648179" lon="-44.905338"/>
      <trkpt lat="-21.648082" lon="-44.905429"/>
      <trkpt lat="-21.647977" lon="-44.905472"/>
      <trkpt lat="-21.647884" lon="-44.905474"/>
      <trkpt lat="-21.6478" lon="-44.905461"/>
      <trkpt lat="-21.647517" lon="-44.905443"/>
      <trkpt lat="-21.647436" lon="-44.905449"/>
      <trkpt lat="-21.647312" lon="-44.905514"/>
      <trkpt lat="-21.647205" lon="-44.905616"/>
      <trkpt lat="-21.646968" lon="-44.906088"/>
      <trkpt lat="-21.64688" lon="-44.90642"/>
      <trkpt lat="-21.646818" lon="-44.906841"/>
      <trkpt lat="-21.646831" lon="-44.90708"/>
      <trkpt lat="-21.647028" lon="-44.907914"/>
      <trkpt lat="-21.647065" lon="-44.908311"/>
      <trkpt lat="-21.64693" lon="-44.909392"/>
      <trkpt lat="-21.646878" lon="-44.90973"/>
      <trkpt lat="-21.646721" lon="-44.910387"/>
      <trkpt lat="-21.646482" lon="-44.911492"/>
      <trkpt lat="-21.646407" lon="-44.911726"/>
      <trkpt lat="-21.646295" lon="-44.911872"/>
      <trkpt lat="-21.646217" lon="-44.91194"/>
      <trkpt lat="-21.646078" lon="-44.911983"/>
      <trkpt lat="-21.645924" lon="-44.912017"/>
      <trkpt lat="-21.645436" lon="-44.911974"/>
      <trkpt lat="-21.645297" lon="-44.911981"/>
      <trkpt lat="-21.645201" lon="-44.912019"/>
      <trkpt lat="-21.645083" lon="-44.912091"/>
      <trkpt lat="-21.645049" lon="-44.912167"/>
      <trkpt lat="-21.645024" lon="-44.912268"/>
      <trkpt lat="-21.645031" lon="-44.912512"/>
      <trkpt lat="-21.645043" lon="-44.91263"/>
      <trkpt lat="-21.645036" lon="-44.912775"/>
      <trkpt lat="-21.644986" lon="-44.912941"/>
      <trkpt lat="-21.644933" lon="-44.91308"/>
      <trkpt lat="-21.644893" lon="-44.913221"/>
      <trkpt lat="-21.644879" lon="-44.913308"/>
      <trkpt lat="-21.644849" lon="-44.913778"/>
      <trkpt lat="-21.644774" lon="-44.914467"/>
      <trkpt lat="-21.644794" lon="-44.914813"/>
      <trkpt lat="-21.644744" lon="-44.914952"/>
      <trkpt lat="-21.644652" lon="-44.915096"/>
      <trkpt lat="-21.644591" lon="-44.915168"/>
      <trkpt lat="-21.644553" lon="-44.915288"/>
      <trkpt lat="-21.644547" lon="-44.915391"/>
      <trkpt lat="-21.644623" lon="-44.915581"/>
      <trkpt lat="-21.644613" lon="-44.915614"/>
      <trkpt lat="-21.644587" lon="-44.915639"/>
      <trkpt lat="-21.644345" lon="-44.915712"/>
      <trkpt lat="-21.644253" lon="-44.915792"/>
      <trkpt lat="-21.643909" lon="-44.916138"/>
      <trkpt lat="-21.643769" lon="-44.916256"/>
      <trkpt lat="-21.64328" lon="-44.916422"/>
      <trkpt lat="-21.643163" lon="-44.916481"/>
      <trkpt lat="-21.642893" lon="-44.916807"/>
      <trkpt lat="-21.642731" lon="-44.917046"/>
      <trkpt lat="-21.642658" lon="-44.917187"/>
      <trkpt lat="-21.642635" lon="-44.91731"/>
      <trkpt lat="-21.642606" lon="-44.917581"/>
      <trkpt lat="-21.642587" lon="-44.918029"/>
      <trkpt lat="-21.642587" lon="-44.918501"/>
      <trkpt lat="-21.642564" lon="-44.918627"/>
      <trkpt lat="-21.642448" lon="-44.918936"/>
      <trkpt lat="-21.642304" lon="-44.919263"/>
      <trkpt lat="-21.642177" lon="-44.919629"/>
      <trkpt lat="-21.642122" lon="-44.919738"/>
      <trkpt lat="-21.642079" lon="-44.919801"/>
      <trkpt lat="-21.641806" lon="-44.920096"/>
      <trkpt lat="-21.64157" lon="-44.920371"/>
      <trkpt lat="-21.641401" lon="-44.920607"/>
      <trkpt lat="-21.64134" lon="-44.920769"/>
      <trkpt lat="-21.641344672654363" lon="-44.92082466716925"/>
      <trkpt lat="-21.641202779753776" lon="-44.9208503231812"/>
      <trkpt lat="-21.640878452600298" lon="-44.9208759791925"/>
      <trkpt lat="-21.640648" lon="-44.920786"/>
      <trkpt lat="-21.640234" lon="-44.920721"/>
      <trkpt lat="-21.640085" lon="-44.920683"/>
      <trkpt lat="-21.639916" lon="-44.920613"/>
      <trkpt lat="-21.639852" lon="-44.920599"/>
      <trkpt lat="-21.639635" lon="-44.920586"/>
      <trkpt lat="-21.639422" lon="-44.920593"/>
      <trkpt lat="-21.63877" lon="-44.920723"/>
      <trkpt lat="-21.638669" lon="-44.920727"/>
      <trkpt lat="-21.638444" lon="-44.920759"/>
      <trkpt lat="-21.638302" lon="-44.92081"/>
      <trkpt lat="-21.638122" lon="-44.921046"/>
      <trkpt lat="-21.638092" lon="-44.921261"/>
      <trkpt lat="-21.638092" lon="-44.921497"/>
      <trkpt lat="-21.638122" lon="-44.921722"/>
      <trkpt lat="-21.638122" lon="-44.921948"/>
      <trkpt lat="-21.638152" lon="-44.922162"/>
      <trkpt lat="-21.638147" lon="-44.922758"/>
      <trkpt lat="-21.637683" lon="-44.923337"/>
      <trkpt lat="-21.63717" lon="-44.923562"/>
      <trkpt lat="-21.636846" lon="-44.923782"/>
      <trkpt lat="-21.6368077298408" lon="-44.92410915704849"/>
      <trkpt lat="-21.636063" lon="-44.923943"/>
      <trkpt lat="-21.635619" lon="-44.923965"/>
      <trkpt lat="-21.635449" lon="-44.924115"/>
      <trkpt lat="-21.634063" lon="-44.924844"/>
      <trkpt lat="-21.633844" lon="-44.924844"/>
      <trkpt lat="-21.633584" lon="-44.924823"/>
      <trkpt lat="-21.633235" lon="-44.924726"/>
      <trkpt lat="-21.632507" lon="-44.924619"/>
      <trkpt lat="-21.6314" lon="-44.92434"/>
      <trkpt lat="-21.631191" lon="-44.924415"/>
      <trkpt lat="-21.630991" lon="-44.924447"/>
      <trkpt lat="-21.630782" lon="-44.924458"/>
      <trkpt lat="-21.630652" lon="-44.924276"/>
      <trkpt lat="-21.630573" lon="-44.923868"/>
      <trkpt lat="-21.630503" lon="-44.923643"/>
      <trkpt lat="-21.630403" lon="-44.92345"/>
      <trkpt lat="-21.630273" lon="-44.923267"/>
      <trkpt lat="-21.630054" lon="-44.923214"/>
      <trkpt lat="-21.629854" lon="-44.923214"/>
      <trkpt lat="-21.629465" lon="-44.923418"/>
      <trkpt lat="-21.629365" lon="-44.92359"/>
      <trkpt lat="-21.629146" lon="-44.923536"/>
      <trkpt lat="-21.628947" lon="-44.923525"/>
      <trkpt lat="-21.628737" lon="-44.92346"/>
      <trkpt lat="-21.628588" lon="-44.92331"/>
      <trkpt lat="-21.628259" lon="-44.923053"/>
      <trkpt lat="-21.628079" lon="-44.922688"/>
      <trkpt lat="-21.62793" lon="-44.922548"/>
      <trkpt lat="-21.627521" lon="-44.922602"/>
      <trkpt lat="-21.627261" lon="-44.92257"/>
      <trkpt lat="-21.627072" lon="-44.922484"/>
      <trkpt lat="-21.626703" lon="-44.92228"/>
      <trkpt lat="-21.626443" lon="-44.921926"/>
      <trkpt lat="-21.626374" lon="-44.921733"/>
      <trkpt lat="-21.626284" lon="-44.92154"/>
      <trkpt lat="-21.626174" lon="-44.921347"/>
      <trkpt lat="-21.626094" lon="-44.920918"/>
      <trkpt lat="-21.625975" lon="-44.920735"/>
      <trkpt lat="-21.625925" lon="-44.920521"/>
      <trkpt lat="-21.625815" lon="-44.920349"/>
      <trkpt lat="-21.625786" lon="-44.920122"/>
    </trkseg>
  </trk>
</gpx>